objectid,ff,co,numstreet,city,state,metro,zipcode
4,Fast Food,McDonald's,330 S Philadelphia Blvd,Aberdeen,MD,Harford,21001
5,Fast Food,McDonald's,999 Beards Hill Rd,Aberdeen,MD,Harford,21001
13,Fast Food,McDonald's,404 Constant Friendship Blvd,Abingdon,MD,Harford,21009
146,Fast Food,McDonald's,25 N Howard St,Baltimore,MD,Baltimore City,21201
147,Fast Food,McDonald's,425 W Baltimore St,Baltimore,MD,Baltimore City,21201
148,Fast Food,McDonald's,2001 N Broadway,Baltimore,MD,Baltimore City,21213
149,Fast Food,McDonald's,2701 Port Covington,Baltimore,MD,Baltimore City,21230
150,Fast Food,McDonald's,3249 Frederick Ave,Baltimore,MD,Baltimore City,21229
151,Fast Food,McDonald's,3223 Washington Blvd,Baltimore,MD,Baltimore City,21230
152,Fast Food,McDonald's,3619 Wilkins Ave,Baltimore,MD,Baltimore City,21229
153,Fast Food,McDonald's,6540 Eastern Avenue,Baltimore,MD,Baltimore City,21224
154,Fast Food,McDonald's,5100 York Rd,Baltimore,MD,Baltimore City,21212
155,Fast Food,McDonald's,5045 Ritchie Hwy,Baltimore,MD,Anne Arundel,21225
156,Fast Food,McDonald's,5713 Belair Rd,Baltimore,MD,Baltimore City,21206
157,Fast Food,McDonald's,15 W North Ave,Baltimore,MD,Baltimore City,21201
158,Fast Food,McDonald's,2840 Greenmount Ave,Baltimore,MD,Baltimore City,21218
159,Fast Food,McDonald's,3401 Pulaski Highway,Baltimore,MD,Baltimore City,21224
160,Fast Food,McDonald's,2501-13 W Franklin Str,Baltimore,MD,Baltimore City,21223
161,Fast Food,McDonald's,3920 Falls Rd,Baltimore,MD,Baltimore City,21211
162,Fast Food,McDonald's,101 W Patapsco Ave,Baltimore,MD,Baltimore City,21225
163,Fast Food,McDonald's,5600 Odonnell Street Cut Off,Baltimore,MD,Baltimore City,21224
164,Fast Food,McDonald's,1600 Argonne Dr,Baltimore,MD,Baltimore City,21218
165,Fast Food,McDonald's,6001 Moravia Rd,Baltimore,MD,Baltimore City,21206
166,Fast Food,McDonald's,4635- 37 Harford Road,Baltimore,MD,Baltimore City,21214
167,Fast Food,McDonald's,4401 Reistertown Rd,Baltimore,MD,Baltimore City,21215
168,Fast Food,McDonald's,101 E Baltimore,Baltimore,MD,Baltimore City,21202
169,Fast Food,McDonald's,200 E. Pratt,Baltimore,MD,Baltimore City,21202
170,Fast Food,McDonald's,825 East Fort Avenue,Baltimore,MD,Baltimore City,21230
171,Fast Food,McDonald's,4526 Erdman Ave,Baltimore,MD,Baltimore City,21213
278,Fast Food,McDonald's,2111 Churchville Rd,Bel Air,MD,Harford,21015
279,Fast Food,McDonald's,1906 Emmorton Rd,Bel Air,MD,Harford,21014
280,Fast Food,McDonald's,599-B Baltimore National Pike,Bel Air,MD,Harford,21014
281,Fast Food,McDonald's,Conowingo Road & Hickory Bypass,Bel Air,MD,Harford,21014
282,Fast Food,McDonald's,1 Red Pump Rd,Bel Air,MD,Harford,21014
293,Fast Food,McDonald's,1325 Riverside Pkwy,Belcamp,MD,Harford,21017
309,Fast Food,McDonald's,10712 Ocean Gtwy,Berlin,MD,Worcester,21811
315,Fast Food,McDonald's,6219 Greenbelt Road,Berwyn Heights,MD,Prince George's,20740
322,Fast Food,McDonald's,8901 Wisconsin Ave,Bethesda,MD,Montgomery,20814
373,Fast Food,McDonald's,3050 Marshall Hall Rd,Bryans Road,MD,Charles,20616
386,Fast Food,McDonald's,Three Notch Road & Old Rolling Road,California,MD,St. Mary's,20619
400,Fast Food,McDonald's,Rte 50/Cedar St,Cambridge,MD,Dorchester,21613
417,Fast Food,McDonald's,4777 Marlboro Pike,Capitol Heights,MD,Prince George's,20743
418,Fast Food,McDonald's,1701 Ritchie Station Ct,Capitol Heights,MD,Prince George's,20743
419,Fast Food,McDonald's,1420 Addison Rd S,Capitol Heights,MD,Prince George's,20743
420,Fast Food,McDonald's,20 Ritchie Rd,Capitol Heights,MD,Prince George's,20743
445,Fast Food,McDonald's,2490 Centreville Rd,Centreville,MD,Queen Anne's,21617
450,Fast Food,McDonald's,30050 Three Notch Rd,Charlotte Hall,MD,Charles,20622
454,Fast Food,McDonald's,7925 Bayside Rd,Chesapeake Beach,MD,Calvert,20732
465,Fast Food,McDonald's,875 Washington Ave (Rt 213),Chestertown,MD,Kent,21620
474,Fast Food,McDonald's,12820 Clear Spring Rd,Clear Spring,MD,Washington,21722
481,Fast Food,McDonald's,6515 Old Alexandria Ferry Road,Clinton,MD,Prince George's,20735
482,Fast Food,McDonald's,8755 Branch Ave,Clinton,MD,Prince George's,20735
483,Fast Food,McDonald's,8905 Stuart Lane,Clinton,MD,Prince George's,20735
496,Fast Food,McDonald's,528 Cranbrook Rd,Cockeysville,MD,Baltimore,21030
497,Fast Food,McDonald's,11310 York Rd,Cockeysville,MD,Baltimore,21030
507,Fast Food,McDonald's,University Of Maryland,College Park,MD,Prince George's,20740
508,Fast Food,McDonald's,8301 Baltimore Blvd,College Park,MD,Prince George's,20740
516,Fast Food,McDonald's,4101 Bladensburg Rd,Colmar Manor,MD,Prince George's,20722
545,Fast Food,McDonald's,15713 Mcmullen Hwy SW,Cresaptown,MD,Allegany,21502
547,Fast Food,McDonald's,10 Maryland Ave,Crisfield,MD,Somerset,21817
562,Fast Food,McDonald's,22 Queen City Dr,Cumberland,MD,Allegany,21502
563,Fast Food,McDonald's,620 Industrial Blvd,Cumberland,MD,Allegany,21502
574,Fast Food,McDonald's,26429 Ridge Rd,Damascus,MD,Montgomery,20872
581,Fast Food,McDonald's,15801 Frederick Rd,Derwood,MD,Montgomery,20855
582,Fast Food,McDonald's,7200 Muncaster Mill Road,Derwood,MD,Montgomery,20855
604,Fast Food,McDonald's,10850 Town Center Blvd,Dunkirk,MD,Calvert,20754
640,Fast Food,McDonald's,2201 Pulaski Hwy,Edgewood,MD,Harford,21040
649,Fast Food,McDonald's,1722 Liberty Rd,Eldersburg,MD,Carroll,21784
668,Fast Food,McDonald's,101 E Pulaski Hwy,Elkton,MD,Cecil,21921
669,Fast Food,McDonald's,226 Belle Hill Rd,Elkton,MD,Cecil,21921
670,Fast Food,McDonald's,1000 E Pulaski Hwy,Elkton,MD,Cecil,21921
691,Fast Food,McDonald's,517 E Main Street,Emmitsburg,MD,Frederick,21727
694,Fast Food,McDonald's,2119 Eastern Blvd,Essex,MD,Baltimore,21220
695,Fast Food,McDonald's,205 Back River Neck Rd,Essex,MD,Baltimore,21221
696,Fast Food,McDonald's,1000 Eastern Ave,Essex,MD,Baltimore,21221
697,Fast Food,McDonald's,3423 Eastern Blvd,Essex,MD,Baltimore,21220
702,Fast Food,McDonald's,2404 Bel Air Road,Fallston,MD,Harford,21047
704,Fast Food,McDonald's,327 Bloomingdale Ave,Federalsburg,MD,Caroline,21632
708,Fast Food,McDonald's,5501 Livingston Rd,Forest Heights,MD,Prince George's,20745
717,Fast Food,McDonald's,6704 Chavez Ln,Forestville,MD,Prince George's,20747
728,Fast Food,McDonald's,996 E Swan Creek,Fort Washington,MD,Prince George's,20744
729,Fast Food,McDonald's,9596 Livingston Rd,Fort Washington,MD,Prince George's,20744
730,Fast Food,McDonald's,7100 Allentown Road,Fort Washington,MD,Prince George's,20744
758,Fast Food,McDonald's,1399 W 7th St,Frederick,MD,Frederick,21702
759,Fast Food,McDonald's,1501 Garret Dr,Frederick,MD,Frederick,21702
760,Fast Food,McDonald's,2020 Yellow Spring Rd,Frederick,MD,Frederick,21702
761,Fast Food,McDonald's,1275 W Patrick St,Frederick,MD,Frederick,21702
762,Fast Food,McDonald's,950 E Patrick St,Frederick,MD,Frederick,21701
763,Fast Food,McDonald's,423 Jefferson St,Frederick,MD,Frederick,21701
764,Fast Food,McDonald's,59 Francis Scott Key Mall,Frederick,MD,Frederick,21704
765,Fast Food,McDonald's,SR 26 & Wormans Mill Rd,Frederick,MD,Frederick,21701
766,Fast Food,McDonald's,5203 Buckeystown Pike,Frederick,MD,Frederick,21703
799,Fast Food,McDonald's,17700 National Highway SW,Frostburg,MD,Allegany,21532
819,Fast Food,McDonald's,18273 Flower Hill Way,Gaithersburg,MD,Montgomery,20879
820,Fast Food,McDonald's,9100 Rothbury Dr,Gaithersburg,MD,Montgomery,20886
821,Fast Food,McDonald's,465 N Fredrick,Gaithersburg,MD,Montgomery,20877
822,Fast Food,McDonald's,83 Bureau Dr,Gaithersburg,MD,Montgomery,20878
823,Fast Food,McDonald's,666 Quince Orchard Rd,Gaithersburg,MD,Montgomery,20878
824,Fast Food,McDonald's,701 Russell Ave,Gaithersburg,MD,Montgomery,20877
825,Fast Food,McDonald's,12130 Darnstown Rd,Gaithersburg,MD,Montgomery,20878
826,Fast Food,McDonald's,19230 Woodfield Rd,Gaithersburg,MD,Montgomery,20879
860,Fast Food,McDonald's,9750 Reisterstown Rd,Garrison,MD,Baltimore,21117
870,Fast Food,McDonald's,12982 Middlebrook Rd,Germantown,MD,Montgomery,20874
871,Fast Food,McDonald's,18000 Mateny Rd,Germantown,MD,Montgomery,20874
872,Fast Food,McDonald's,21121 Frederick Road,Germantown,MD,Montgomery,20876
873,Fast Food,McDonald's,20910 Frederick Rd,Germantown,MD,Montgomery,20876
874,Fast Food,McDonald's,19660 Gunners Branch Dr,Germantown,MD,Montgomery,20876
929,Fast Food,McDonald's,4098 National Pike,Grantsville,MD,Garrett,21536
932,Fast Food,McDonald's,21600 Great Mills Rd,Great Mills,MD,St. Mary's,20653
934,Fast Food,McDonald's,6000 Greenbelt Rd,Greenbelt,MD,Prince George's,20770
966,Fast Food,McDonald's,316 E Washington St,Hagerstown,MD,Washington,21740
967,Fast Food,McDonald's,17301 Valley Mall Rd,Hagerstown,MD,Washington,21740
968,Fast Food,McDonald's,170 Northern Avenue,Hagerstown,MD,Washington,21742
969,Fast Food,McDonald's,17850 Garland Groh B,Hagerstown,MD,Washington,21740
970,Fast Food,McDonald's,17601 Garland Groh Blvd,Hagerstown,MD,Washington,21740
971,Fast Food,McDonald's,1737 Dual Hwy,Hagerstown,MD,Washington,21740
972,Fast Food,McDonald's,1729 Massey Blvd,Hagerstown,MD,Washington,21740
973,Fast Food,McDonald's,10525 Sharpsburg Pike,Hagerstown,MD,Washington,21740
974,Fast Food,McDonald's,18411 Maugans Ave,Hagerstown,MD,Washington,21742
975,Fast Food,McDonald's,16921 Halfway Blvd,Hagerstown,MD,Washington,21740
1005,Fast Food,McDonald's,4225 North Woods Trl,Hampstead,MD,Carroll,21074
1031,Fast Food,McDonald's,802 Pulaski,Havre de Grace,MD,Harford,21078
1036,Fast Food,McDonald's,3501 Branch Ave,Hillcrest Heights,MD,Prince George's,20748
1054,Fast Food,McDonald's,3500 East West Hwy,Hyattsville,MD,Prince George's,20782
1055,Fast Food,McDonald's,2306 University Blvd,Hyattsville,MD,Prince George's,20783
1077,Fast Food,McDonald's,2741 University Blvd,Kensington,MD,Montgomery,20895
1079,Fast Food,McDonald's,854 Jefferson Pike,Knoxville,MD,Frederick,21758
1084,Fast Food,McDonald's,109 Drury Drive,La Plata,MD,Charles,20646
1085,Fast Food,McDonald's,6385 Crain Highway,La Plata,MD,Charles,20646
1093,Fast Food,McDonald's,1242 National Hwy,La Vale,MD,Allegany,21502
1094,Fast Food,McDonald's,12500 Country Club Mall Rd,La Vale,MD,Allegany,21502
1101,Fast Food,McDonald's,7708 Landover Rd,Landover,MD,Prince George's,20785
1102,Fast Food,McDonald's,8710 Central Ave,Landover,MD,Prince George's,20785
1109,Fast Food,McDonald's,6200 Annapolis Rd,Landover Hills,MD,Prince George's,20784
1111,Fast Food,McDonald's,7911 New Hampshire Ave,Langley Park,MD,Prince George's,20783
1117,Fast Food,McDonald's,7570 Annapolis Rd,Lanham,MD,Prince George's,20784
1118,Fast Food,McDonald's,9007 Annapolis Rd,Lanham,MD,Prince George's,20706
1165,Fast Food,McDonald's,40950 Merchants Ln,Leonardtown,MD,St. Mary's,20650
1206,Fast Food,McDonald's,1472 Martin Blvd,Middle River,MD,Baltimore,21220
1213,Fast Food,McDonald's,8227 Liberty Rd,Milford Mill,MD,Baltimore,21244
1225,Fast Food,McDonald's,19388 Montgomery Village Ave,Montgomery Village,MD,Montgomery,20886
1235,Fast Food,McDonald's,1706 Ridgeside Drive,Mount Airy,MD,Carroll,21771
1237,Fast Food,McDonald's,9615 Myersville-Middletown Rd,Myersville,MD,Frederick,21773
1244,Fast Food,McDonald's,11700 Morning Gate Ln,New Market,MD,Frederick,21774
1248,Fast Food,McDonald's,2400 Pulaski Hwy,North East,MD,Cecil,21901
1257,Fast Food,McDonald's,7927 Belair Road,Nottingham,MD,Baltimore,21236
1258,Fast Food,McDonald's,483 Cordon Way,Nottingham,MD,Baltimore,21236
1261,Fast Food,McDonald's,9106-9108 Belair Rd,Nottingham,MD,Baltimore,21236
1265,Fast Food,McDonald's,19549 Garrett Hwy,Oakland,MD,Garrett,21550
1266,Fast Food,McDonald's,19 N 3Rd St,Oakland,MD,Garrett,21550
1289,Fast Food,McDonald's,3201 Coastal Hwy,Ocean City,MD,Worcester,21842
1290,Fast Food,McDonald's,12301 Coastal Hwy,Ocean City,MD,Worcester,21842
1298,Fast Food,McDonald's,11041 Racetrack Rd,Ocean Pines,MD,Worcester,21811
1311,Fast Food,McDonald's,18010 Georgia Ave,Olney,MD,Montgomery,20832
1324,Fast Food,McDonald's,9774 Groffs Mill Dr,Owings Mills,MD,Baltimore,21117
1339,Fast Food,McDonald's,6126 Oxon Hill Road,Oxon Hill,MD,Prince George's,20745
1340,Fast Food,McDonald's,121 North Cove Terrace,Oxon Hill,MD,Prince George's,20745
1341,Fast Food,McDonald's,5500 Saint Barnabas Rd,Oxon Hill,MD,Prince George's,20745
1360,Fast Food,McDonald's,7309 Mc Clean Blvd,Parkville,MD,Baltimore,21234
1361,Fast Food,McDonald's,2107 E Joppa Rd,Parkville,MD,Baltimore,21234
1391,Fast Food,McDonald's,2465 Cedar Point Rd,Patuxent River,MD,St. Mary's,20670
1399,Fast Food,McDonald's,3425 Sweet Air Rd,Phoenix,MD,Baltimore,21131
1404,Fast Food,McDonald's,502 Reisterstown Rd,Pikesville,MD,Baltimore,21208
1413,Fast Food,McDonald's,Linden Ave & Lynn Haven Dr,Pocomoke City,MD,Worcester,21851
1415,Fast Food,McDonald's,19630 Fisher Ave.,Poolesville,MD,Montgomery,20837
1418,Fast Food,McDonald's,11301 Seven Locks Rd,Potomac,MD,Montgomery,20854
1424,Fast Food,McDonald's,515 N Solomons Island Rd,Prince Frederick,MD,Calvert,20678
1429,Fast Food,McDonald's,12112 Brittingham Ln,Princess Anne,MD,Somerset,21853
1437,Fast Food,McDonald's,9500 Liberty Rd,Randallstown,MD,Baltimore,21133
1448,Fast Food,McDonald's,12012 Reisterstown Rd,Reisterstown,MD,Baltimore,21136
1453,Fast Food,McDonald's,10 Rising Sun Town Center,Rising Sun,MD,Cecil,21911
1454,Fast Food,McDonald's,6228 Baltimore Blvd,Riverdale,MD,Prince George's,20737
1455,Fast Food,McDonald's,5600 Riverdale Rd,Riverdale,MD,Prince George's,20737
1469,Fast Food,McDonald's,1390 Rockville Pike,Rockville,MD,Montgomery,20852
1470,Fast Food,McDonald's,2101 Viers Mill Rd,Rockville,MD,Montgomery,20851
1471,Fast Food,McDonald's,16701 Crabbs Branch,Rockville,MD,Montgomery,20855
1472,Fast Food,McDonald's,11564 Rockville Pike,Rockville,MD,Montgomery,20852
1496,Fast Food,McDonald's,6420 Petrie Way,Rosedale,MD,Baltimore,21237
1497,Fast Food,McDonald's,6315 Kenwood Avenue,Rosedale,MD,Baltimore,21237
1523,Fast Food,McDonald's,1205 Parsons Rd,Salisbury,MD,Wicomico,21801
1524,Fast Food,McDonald's,1305 S Salisbury,Salisbury,MD,Wicomico,21801
1525,Fast Food,McDonald's,407 N Fruitland Blvd,Salisbury,MD,Wicomico,21801
1526,Fast Food,McDonald's,298 Tilghman Rd,Salisbury,MD,Wicomico,21801
1527,Fast Food,McDonald's,Salisbury Mall,Salisbury,MD,Wicomico,21801
1528,Fast Food,McDonald's,2709 N Salisbury Blvd,Salisbury,MD,Wicomico,21801
1539,Fast Food,McDonald's,6131 Martin Luther King Jr Hwy,Seat Pleasant,MD,Prince George's,20743
1571,Fast Food,McDonald's,2207 Bel Pre Rd,Silver Spring,MD,Montgomery,20906
1572,Fast Food,McDonald's,12313 Georgia Ave,Silver Spring,MD,Montgomery,20906
1573,Fast Food,McDonald's,12135 Viers Mill Rd,Silver Spring,MD,Montgomery,20906
1574,Fast Food,McDonald's,11160 Veirs Mill Rd,Silver Spring,MD,Montgomery,20902
1599,Fast Food,McDonald's,5616 Market St,Snow Hill,MD,Worcester,21863
1602,Fast Food,McDonald's,13500 H.G. Trueman Road,Solomons,MD,Calvert,20688
1608,Fast Food,McDonald's,4835 Silverhill Rd,Suitland,MD,Prince George's,20746
1609,Fast Food,McDonald's,4777 Allentown Road SE,Suitland,MD,Prince George's,20746
1618,Fast Food,McDonald's,6301 New Hampshire Ave,Takoma Park,MD,Montgomery,20912
1623,Fast Food,McDonald's,520 E Baltimore St,Taneytown,MD,Carroll,21787
1639,Fast Food,McDonald's,200 Frederick Road,Thurmont,MD,Frederick,21788
1640,Fast Food,McDonald's,2116 York Rd,Thurmont,MD,Baltimore,21093
1658,Fast Food,McDonald's,934 York Rd,Towson,MD,Baltimore,21204
1659,Fast Food,McDonald's,6830 Loch Raven Blvd,Towson,MD,Baltimore,21286
1660,Fast Food,McDonald's,1619 E Joppa Rd,Towson,MD,Baltimore,21286
1679,Fast Food,McDonald's,9450 Crain Highway,Upper Marlboro,MD,Prince George's,20772
1689,Fast Food,McDonald's,3406 Urbana Pike,Urbana,MD,Frederick,21704
1704,Fast Food,McDonald's,3000 Crain Highway,Waldorf,MD,Charles,20601
1705,Fast Food,McDonald's,3300 Leonardtown Rd,Waldorf,MD,Charles,20601
1706,Fast Food,McDonald's,11025 Mall Circle,Waldorf,MD,Charles,20603
1707,Fast Food,McDonald's,11930 Acton Ln,Waldorf,MD,Charles,20601
1708,Fast Food,McDonald's,2065 Crain Highway,Waldorf,MD,Charles,20604
1722,Fast Food,McDonald's,20 E Frederick St,Walkersville,MD,Frederick,21793
1725,Fast Food,McDonald's,182 Church St,Westernport,MD,Allegany,21562
1737,Fast Food,McDonald's,280 Woodward Rd,Westminster,MD,Carroll,21157
1738,Fast Food,McDonald's,520 Baltimore Blvd,Westminster,MD,Carroll,21157
1751,Fast Food,McDonald's,13701 Connecticut Ave,Wheaton,MD,Montgomery,20906
1760,Fast Food,McDonald's,8118 Perry Hills Ct,White Marsh,MD,Baltimore,21236
1761,Fast Food,McDonald's,5302 Campbell Blvd,White Marsh,MD,Baltimore,21236
1763,Fast Food,McDonald's,313 East Potomac Street,Williamsport,MD,Washington,21795
1773,Fast Food,McDonald's,702 Lisbon Center Dr,Woodbine,MD,Howard,21797