object id,ff,co,numstreet,city,state,metro,zipcode,Latitude,Longitude
9,Fast Food,Wendy's,987 Beards Hill Road,Aberdeen,MD,Harford,21001,-8480747.847,4797002.552
16,Fast Food,Wendy's,2910 Emmorton Road,Abingdon,MD,Harford,21009,-8494893.357,4790669.753
20,Fast Food,Wendy's,7099 Berry Road,Accokeek,MD,Prince George's,20607,-8572984.406,4672947.798
53,Fast Food,Wendy's,1949 West St,Annapolis,MD,Anne Arundel,21401,-8519042.747,4718942.308
54,Fast Food,Wendy's,153 Defense Hwy,Annapolis,MD,Anne Arundel,21401,-8522070.981,4719531.038
55,Fast Food,Wendy's,1454 Whitehall Rd.,Annapolis,MD,Anne Arundel,21403,-8509681.104,4725434.535
60,Fast Food,Wendy's,3620 Washington Blvd,Arbutus,MD,Baltimore,21227,-8534968.138,4757321.979
261,Fast Food,Wendy's,901 Mcculloh Street,Baltimore,MD,Baltimore City,21217,-8529685.82,4764614.979
262,Fast Food,Wendy's,2045 Harford Road,Baltimore,MD,Baltimore City,21218,-8526871.874,4766730.508
263,Fast Food,Wendy's,2339 Frederick Ave.,Baltimore,MD,Baltimore City,21223,-8533008.224,4762514.148
264,Fast Food,Wendy's,6411 Eastern Avenue,Baltimore,MD,Baltimore City,21224,-8520220.471,4762957.17
265,Fast Food,Wendy's,5615 York Road,Baltimore,MD,Baltimore City,21213,-8528167.342,4773080.837
266,Fast Food,Wendy's,4410 West Northern Pky,Baltimore,MD,Baltimore City,21215,-8538047.112,4771264.756
267,Fast Food,Wendy's,4200 Patterson Avenue,Baltimore,MD,Baltimore City,21215,-8538707.799,4772567.729
291,Fast Food,Wendy's,2308 East Churchville Road,Bel Air,MD,Harford,21014,-8490924.815,4801536.931
292,Fast Food,Wendy's,1604 Conowingo Road,Bel Air,MD,Harford,21014,-8499725.768,4803522.267
305,Fast Food,Wendy's,10634 Baltimore Boulevard,Beltsville,MD,Prince George's,20705,-8562114.538,4725948.273
356,Fast Food,Wendy's,16400 Harbour Way,Bowie,MD,Prince George's,20716,-8540265.763,4714302.711
391,Fast Food,Wendy's,45460 Miramar Way,California,MD,St. Mary's,20619,-8516080.234,4620960.363
393,Fast Food,Wendy's,11741 Beltsville Dr,Calverton,MD,Prince George's,20705,-8564615.602,4728876.366
404,Fast Food,Wendy's,211 Sunburst Highway,Cambridge,MD,Dorchester,21613,-8467501.86,4659880.306
408,Fast Food,Wendy's,6335 Allentown Road,Camp Springs,MD,Prince George's,20748,-8561383.436,4693442.854
425,Fast Food,Wendy's,8715 Central Ave,Capitol Heights,MD,Prince George's,20743,-8555621.977,4705958.447
443,Fast Food,Wendy's,6600 Baltimore National Pike,Catonsville,MD,Baltimore,21228,-8545319.235,4762772.784
453,Fast Food,Wendy's,30273 Triangle Drive,Charlotte Hall,MD,Charles,20622,-8546379.838,4649997.074
461,Fast Food,Wendy's,120 Chester Station Road,Chester,MD,Queen Anne's,21619,-8491577.793,4718307.327
473,Fast Food,Wendy's,5801 Clarksville Square Drive,Clarksville,MD,Howard,21019,-8564647.003,4752058.318
489,Fast Food,Wendy's,8907 Woodyard Rd,Clinton,MD,Prince George's,20735,-8559041.094,4688390.487
502,Fast Food,Wendy's,9817 York Rd,Cockeysville,MD,Baltimore,21030,-8530895.107,4787718.65
543,Fast Food,Wendy's,9150 Rt 108,Columbia,MD,Howard,21045,-8552714.865,4755254.106
544,Fast Food,Wendy's,6355 Dobbin Road,Columbia,MD,Howard,21045,-8551574.889,4749989.557
569,Fast Food,Wendy's,325 S. Centre Street,Cumberland,MD,Allegany,21502,-8766900.717,4815340.892
584,Fast Food,Wendy's,15807 Frederick Road,Derwood,MD,Montgomery,20855,-8589917.82,4738130.507
595,Fast Food,Wendy's,5425 Silver Hill Rd,District Heights,MD,Prince George's,20747,-8562163.618,4700505.688
603,Fast Food,Wendy's,1320 Merritt Blvd,Dundalk,MD,Baltimore,21222,-8516507.632,4761781.457
638,Fast Food,Wendy's,100 E Central Ave,Edgewater,MD,Anne Arundel,21037,-8523183.21,4711156.581
642,Fast Food,Wendy's,1950 Pulaski Highway,Edgewood,MD,Harford,21040,-8495189.91,4784264.538
653,Fast Food,Wendy's,6400 Ridge Rd,Eldersburg,MD,Carroll,21784,-8564053.947,4778830.699
662,Fast Food,Wendy's,7311 Washington Blvd,Elkridge,MD,Howard,21075,-8545333.13,4748017.613
700,Fast Food,Wendy's,1344 Eastern Boulevard,Essex,MD,Baltimore,21221,-8511567.817,4767039.505
719,Fast Food,Wendy's,3440 Donnell Drive,Forestville,MD,Prince George's,20747,-8558752.379,4699543.007
732,Fast Food,Wendy's,11815 Livingston Road,Fort Washington,MD,Prince George's,20744,-8570558.984,4682621.306
794,Fast Food,Wendy's,98 Monocacy Boulevard,Frederick,MD,Frederick,21701,-8614812.83,4780200.332
795,Fast Food,Wendy's,5719 Buckeystown Pike,Frederick,MD,Frederick,21701,-8617165.564,4777905.885
796,Fast Food,Wendy's,1201 W Patrick St,Frederick,MD,Frederick,21702,-8621791.338,4781810.154
843,Fast Food,Wendy's,18350 Contour Rd,Gaithersburg,MD,Montgomery,20877,-8593900.412,4743937.451
844,Fast Food,Wendy's,18425 Woodfield Road,Gaithersburg,MD,Montgomery,20879,-8589402.585,4744543.08
845,Fast Food,Wendy's,12114 Darnestown Rd,Gaithersburg,MD,Montgomery,20878,-8599517.069,4738463.515
859,Fast Food,Wendy's,1064 Md Route 3 N,Gambrills,MD,Anne Arundel,21054,-8536955.398,4725464.58
889,Fast Food,Wendy's,12988 Middlebrook Road,Germantown,MD,Montgomery,20874,-8601602.299,4747647.425
918,Fast Food,Wendy's,7905 Ritchie Highway,Glen Burnie,MD,Anne Arundel,21060,-8527318.04,4741776.94
919,Fast Food,Wendy's,1250 Crain Hwy S,Glen Burnie,MD,Anne Arundel,21061,-8530644.144,4743256.761
920,Fast Food,Wendy's,7399 Baltimore Annapolis Blvd,Glen Burnie,MD,Anne Arundel,21061,-8530532.723,4746147.998
921,Fast Food,Wendy's,6910 Ritchie Highway,Glen Burnie,MD,Anne Arundel,21061,-8528515.277,4748387.392
939,Fast Food,Wendy's,6242 Greenbelt Road,Greenbelt,MD,Prince George's,20770,-8561144.938,4721252.3
940,Fast Food,Wendy's,7513 Greenbelt Rd.,Greenbelt,MD,Prince George's,20770,-8557826.707,4720810.185
996,Fast Food,Wendy's,10502 Sharpsburg Pike,Hagerstown,MD,Washington,21782,-8652820.52,4808171.72
997,Fast Food,Wendy's,17786 Garland Groth Boulevard,Hagerstown,MD,Washington,21740,-8655099.132,4815952.281
998,Fast Food,Wendy's,1570 Wesel Blvd,Hagerstown,MD,Washington,21740,-8656101.246,4812736.967
1008,Fast Food,Wendy's,4224 North Woods Trl,Hampstead,MD,Carroll,21074,-8554432.647,4807423.769
1025,Fast Food,Wendy's,7426 New Ridge Rd,Hanover,MD,Anne Arundel,21240,-8538395.43,4747011.996
1026,Fast Food,Wendy's,7057 Arundel Mills Blvd.,Hanover,MD,Anne Arundel,21076,-8541214.445,4743582.902
1043,Fast Food,Wendy's,11320 York Road,Hunt Valley,MD,Baltimore,21030,-8532650.014,4792829.108
1064,Fast Food,Wendy's,6410 Sargent Road,Hyattsville,MD,Prince George's,20782,-8569781.225,4717012.175
1076,Fast Food,Wendy's,1060 Joppa Farm Rd,Joppatown,MD,Harford,21085,-8501504.805,4782351.318
1089,Fast Food,Wendy's,6293 Crain Hwy,La Plata,MD,Charles,20646,-8569873.077,4656031.697
1097,Fast Food,Wendy's,1224 National Highway,La Vale,MD,Allegany,21502,-8775826.009,4813367.569
1108,Fast Food,Wendy's,8211 Landover Rd,Landover,MD,Prince George's,20785,-8557126.831,4710791.592
1122,Fast Food,Wendy's,9401 Annapolis Road,Lanham,MD,Prince George's,20706,-8554442.1,4716697.442
1158,Fast Food,Wendy's,14050 Baltimore Blvd,Laurel,MD,Prince George's,20707,-8556382.472,4733550.027
1159,Fast Food,Wendy's,3563 Russett Grn,Laurel,MD,Anne Arundel,20724,-8549930.179,4735912.047
1160,Fast Food,Wendy's,8850 Gorman Road,Laurel,MD,Howard,20723,-8551583.924,4740487.069
1168,Fast Food,Wendy's,40804 Merchant Lane,Leonardtown,MD,St. Mary's,20650,-8534242.031,4623015.397
1178,Fast Food,Wendy's,21589 Great Mills Rd,Lexington Park,MD,St. Mary's,20653,-8512289.494,4616213.614
1185,Fast Food,Wendy's,1589 West Nursery Rd,Linthicum,MD,Anne Arundel,21090,-8536070.175,4750987.987
1189,Fast Food,Wendy's,714 Nursery Rd,Linthicum Heights,MD,Anne Arundel,21090,-8533611.189,4753865.386
1209,Fast Food,Wendy's,119 Beacon Road,Middle River,MD,Baltimore,21220,-8511073.082,4769951.722
1220,Fast Food,Wendy's,8203 Veterans Hwy,Millersville,MD,Anne Arundel,21108,-8530852.195,4738441.116
1242,Fast Food,Wendy's,8308 Annapolis Rd,New Carrollton,MD,Prince George's,20784,-8557381.314,4715405.22
1251,Fast Food,Wendy's,2522 West Pulaski Highway,North East,MD,Cecil,21901,-8454885.983,4809000.036
1297,Fast Food,Wendy's,12641 Ocean Gateway,Ocean City,MD,Worcester,21842,-8361351.791,4627266.036
1331,Fast Food,Wendy's,10109 Reisterstown,Owings Mills,MD,Baltimore,21117,-8546285.081,4781170.044
1332,Fast Food,Wendy's,9243 Lakeside Boulevard,Owings Mills,MD,Baltimore,21117,-8548280.056,4778905.76
1351,Fast Food,Wendy's,6122 Oxon Hill Road,Oxon Hill,MD,Prince George's,20745,-8568954.351,4693778.478
1368,Fast Food,Wendy's,3001 East Joppa Road,Parkville,MD,Baltimore,21234,-8518539.808,4778369.827
1389,Fast Food,Wendy's,8098 Edwin Raynor Blvd,Pasadena,MD,Anne Arundel,21122,-8519480.445,4739618.42
1390,Fast Food,Wendy's,8457 Ft. Smallwood Road,Pasadena,MD,Anne Arundel,21122,-8518077.824,4744574.352
1394,Fast Food,Wendy's,8700 Belair Rd,Perry Hall,MD,Baltimore,21236,-8514645.741,4777988.838
1395,Fast Food,Wendy's,5001 Honeygo Center Drive,Perry Hall,MD,Baltimore,21128,-8509792.477,4779835.867
1427,Fast Food,Wendy's,170 Solomons Island Rd N,Prince Frederick,MD,Calvert,20678,-8525893.402,4656057.316
1442,Fast Food,Wendy's,8610 Liberty Rd.,Randallstown,MD,Baltimore,21133,-8547077.35,4773629.599
1456,Fast Food,Wendy's,6210 Kenilworth Avenue,Riverdale,MD,Prince George's,20737,-8562664.815,4716225.163
1487,Fast Food,Wendy's,808 Rockville Pike,Rockville,MD,Montgomery,20855,-8587125.547,4732748.203
1488,Fast Food,Wendy's,5001 Nicholson Road,Rockville,MD,Montgomery,20850,-8583047.92,4728403.984
1535,Fast Food,Wendy's,1101 S Salisbury Blvd,Salisbury,MD,Wicomico,21801,-8415984.153,4628783.299
1536,Fast Food,Wendy's,2710 N.Salisbury Blvd,Salisbury,MD,Wicomico,21801,-8411995.191,4638447.625
1537,Fast Food,Wendy's,403 Punkin Court,Salisbury,MD,Wicomico,21804,-8409256.673,4631292.539
1595,Fast Food,Wendy's,13804 Outlet Drive,Silver Spring,MD,Montgomery,20904,-8565722.516,4733460.131
1596,Fast Food,Wendy's,14012 Connecticut Ave,Silver Spring,MD,Montgomery,20906,-8580162.938,4733724.722
1597,Fast Food,Wendy's,11030 Viers Mill Road,Silver Spring,MD,Montgomery,20902,-8577346.014,4727015.041
1621,Fast Food,Wendy's,6823 New Hampshire Ave,Takoma Park,MD,Montgomery,20912,-8571093.123,4717944.616
1634,Fast Food,Wendy's,3636 Branch Avenue,Temple Hills,MD,Prince George's,20784,-8565838.633,4699063.049
1646,Fast Food,Wendy's,303 Tippin Drive,Thurmont,MD,Frederick,21788,-8618526.14,4810338.284
1687,Fast Food,Wendy's,8 Watkins Park Dr,Upper Marlboro,MD,Prince George's,20774,-8548427.123,4707286.073
1688,Fast Food,Wendy's,15400 Chrysler Drive,Upper Marlboro,MD,Prince George's,20772,-8542595.623,4695593.036
1719,Fast Food,Wendy's,3005 Crain Hwy,Waldorf,MD,Charles,20603,-8561209.443,4668871.463
1720,Fast Food,Wendy's,3355 Leonardtown Road,Waldorf,MD,Charles,20604,-8560490.997,4667449.318
1749,Fast Food,Wendy's,395 North Center Street,Westminster,MD,Carroll,21157,-8569645.96,4804438.477
1762,Fast Food,Wendy's,8241 Perry Hall Blvd,White Marsh,MD,Baltimore,21236,-8512823.289,4775907.428
1770,Fast Food,Wendy's,2351 Rolling Road,Windsor Mill,MD,Baltimore,21244,-8544784.373,4768159.052
1782,Fast Food,Wendy's,1660 Whitehead Ct,Woodlawn,MD,Baltimore,21207,-8542710.13,4766346.959
1782,Fast Food,Wendy's,1660 Whitehead Ct,Woodlawn,MD,Baltimore,21207,-8542710.13,4766346.959